{"type":"FeatureCollection","_meta":{"source":"data.sfgov.org 7e7j-59qk (SF Schools, Active only)","snapshot_date":"2026-07-11"},"features":[{"type":"Feature","geometry":{"type":"Point","coordinates":[-122.449984,37.745874]},"properties":{"name":"Academy (The)- SF @McAteer","low_grade":"9","high_grade":"12","entity_type":"Alternative Schools of Choice"}},{"type":"Feature","geometry":{"type":"Point","coordinates":[-122.424159,37.75368]},"properties":{"name":"Adda Clevenger School","low_grade":"K","high_grade":"8","entity_type":"Elementary School (Private)"}},{"type":"Feature","geometry":{"type":"Point","coordinates":[-122.482191,37.783124]},"properties":{"name":"Alamo Elementary","low_grade":"K","high_grade":"5","entity_type":"Elementary Schools (Public)"}},{"type":"Feature","geometry":{"type":"Point","coordinates":[-122.40612,37.787767]},"properties":{"name":"Aloha Micro Academy","low_grade":"K","high_grade":"12","entity_type":"K-12 Schools (Private)"}},{"type":"Feature","geometry":{"type":"Point","coordinates":[-122.433941,37.80457]},"properties":{"name":"Alpha School San Francisco","low_grade":"K","high_grade":"8","entity_type":"Elementary School (Private)"}},{"type":"Feature","geometry":{"type":"Point","coordinates":[-122.40731,37.725947]},"properties":{"name":"Alta Vista School","low_grade":"K","high_grade":"8","entity_type":"Elementary School (Private)"}},{"type":"Feature","geometry":{"type":"Point","coordinates":[-122.438734,37.753675]},"properties":{"name":"Alvarado Elementary","low_grade":"K","high_grade":"5","entity_type":"Elementary Schools (Public)"}},{"type":"Feature","geometry":{"type":"Point","coordinates":[-122.466233,37.730234]},"properties":{"name":"Aptos Middle","low_grade":"6","high_grade":"8","entity_type":"Intermediate/Middle Schools (Public)"}},{"type":"Feature","geometry":{"type":"Point","coordinates":[-122.453418,37.728235]},"properties":{"name":"Archbishop Riordan High School","low_grade":"9","high_grade":"12","entity_type":"High Schools (Private)"}},{"type":"Feature","geometry":{"type":"Point","coordinates":[-122.476799,37.77515]},"properties":{"name":"Argonne Elementary","low_grade":"K","high_grade":"5","entity_type":"Elementary Schools (Public)"}},{"type":"Feature","geometry":{"type":"Point","coordinates":[-122.394874,37.750495]},"properties":{"name":"Arise Educational Center","low_grade":"K","high_grade":"12","entity_type":"K-12 Schools (Private)"}},{"type":"Feature","geometry":{"type":"Point","coordinates":[-122.449984,37.745874]},"properties":{"name":"Asawa (Ruth) SF Sch of the Arts, A Public School","low_grade":"9","high_grade":"12","entity_type":"Alternative Schools of Choice"}},{"type":"Feature","geometry":{"type":"Point","coordinates":[-122.487198,37.773614]},"properties":{"name":"Bais Menacham Yeshiva Day School","low_grade":"K","high_grade":"8","entity_type":"Elementary School (Private)"}},{"type":"Feature","geometry":{"type":"Point","coordinates":[-122.439853,37.722073]},"properties":{"name":"Balboa High","low_grade":"9","high_grade":"12","entity_type":"High Schools (Public)"}},{"type":"Feature","geometry":{"type":"Point","coordinates":[-122.398021,37.760533]},"properties":{"name":"Bertrand D Hsu American & Chinese Bicultural Academy","low_grade":"K","high_grade":"8","entity_type":"Elementary School (Private)"}},{"type":"Feature","geometry":{"type":"Point","coordinates":[-122.40612,37.787767]},"properties":{"name":"Bloomington Pre-University Education","low_grade":"K","high_grade":"12","entity_type":"High Schools (Private)"}},{"type":"Feature","geometry":{"type":"Point","coordinates":[-122.468741,37.800303]},"properties":{"name":"Brightworks School","low_grade":"K","high_grade":"12","entity_type":"Elementary School (Private)"}},{"type":"Feature","geometry":{"type":"Point","coordinates":[-122.436875,37.777794]},"properties":{"name":"Brilliant Microschool","low_grade":"1","high_grade":"12","entity_type":"K-12 Schools (Private)"}},{"type":"Feature","geometry":{"type":"Point","coordinates":[-122.399692,37.735911]},"properties":{"name":"Brown Jr. (Willie L) Middle","low_grade":"6","high_grade":"8","entity_type":"Intermediate/Middle Schools (Public)"}},{"type":"Feature","geometry":{"type":"Point","coordinates":[-122.404906,37.751628]},"properties":{"name":"Bryant Elementary","low_grade":"K","high_grade":"5","entity_type":"Elementary Schools (Public)"}},{"type":"Feature","geometry":{"type":"Point","coordinates":[-122.419745,37.753715]},"properties":{"name":"Buena Vista/ Horace Mann K-8","low_grade":"K","high_grade":"8","entity_type":"Elementary Schools (Public)"}},{"type":"Feature","geometry":{"type":"Point","coordinates":[-122.405071,37.720698]},"properties":{"name":"Burton (Phillip and Sala) Academic High","low_grade":"9","high_grade":"12","entity_type":"High Schools (Public)"}},{"type":"Feature","geometry":{"type":"Point","coordinates":[-122.406742,37.775856]},"properties":{"name":"Carmichael (Bessie)/FEC","low_grade":"K","high_grade":"8","entity_type":"Elementary Schools (Public)"}},{"type":"Feature","geometry":{"type":"Point","coordinates":[-122.386385,37.732403]},"properties":{"name":"Carver (George Washington) Elementary","low_grade":"K","high_grade":"5","entity_type":"Elementary Schools (Public)"}},{"type":"Feature","geometry":{"type":"Point","coordinates":[-122.413896,37.792394]},"properties":{"name":"Cathedral School for Boys","low_grade":"K","high_grade":"8","entity_type":"Elementary School (Private)"}},{"type":"Feature","geometry":{"type":"Point","coordinates":[-122.415419,37.75488]},"properties":{"name":"Chavez (Cesar) Elementary","low_grade":"K","high_grade":"5","entity_type":"Elementary Schools (Public)"}},{"type":"Feature","geometry":{"type":"Point","coordinates":[-122.425053,37.763988]},"properties":{"name":"Children's Day School","low_grade":"K","high_grade":"8","entity_type":"Elementary School (Private)"}},{"type":"Feature","geometry":{"type":"Point","coordinates":[-122.403175,37.79831]},"properties":{"name":"Chin (John Yehall) Elementary","low_grade":"K","high_grade":"5","entity_type":"Elementary Schools (Public)"}},{"type":"Feature","geometry":{"type":"Point","coordinates":[-122.47388,37.729205]},"properties":{"name":"Chinese American International School- 19th Ave Campus","low_grade":"K","high_grade":"8","entity_type":"Elementary School (Private)"}},{"type":"Feature","geometry":{"type":"Point","coordinates":[-122.444292,37.769464]},"properties":{"name":"Chinese Immersion School at DeAvila","low_grade":"K","high_grade":"5","entity_type":"Elementary Schools (Public)"}},{"type":"Feature","geometry":{"type":"Point","coordinates":[-122.444866,37.721751]},"properties":{"name":"City Arts & Leadership Academy","low_grade":"9","high_grade":"12","entity_type":"High Schools (Public)"}},{"type":"Feature","geometry":{"type":"Point","coordinates":[-122.456111,37.752989]},"properties":{"name":"Clarendon Alternative Elementary","low_grade":"K","high_grade":"5","entity_type":"Elementary Schools (Public)"}},{"type":"Feature","geometry":{"type":"Point","coordinates":[-122.429048,37.720733]},"properties":{"name":"Cleveland Elementary","low_grade":"K","high_grade":"5","entity_type":"Elementary Schools (Public)"}},{"type":"Feature","geometry":{"type":"Point","coordinates":[-122.439189,37.788174]},"properties":{"name":"Cobb (William L.) Elementary","low_grade":"K","high_grade":"5","entity_type":"Elementary Schools (Public)"}},{"type":"Feature","geometry":{"type":"Point","coordinates":[-122.434294,37.794657]},"properties":{"name":"Convent & Stuart Hall, Schools of the Sacred Heart - San Francisco","low_grade":"K","high_grade":"12","entity_type":"K-12 Schools (Private)"}},{"type":"Feature","geometry":{"type":"Point","coordinates":[-122.414845,37.800719]},"properties":{"name":"Cooper (Sarah B.) Children Center","low_grade":"P","high_grade":"P","entity_type":"Preschool"}},{"type":"Feature","geometry":{"type":"Point","coordinates":[-122.419485,37.729063]},"properties":{"name":"Cornerstone Academy-Silver Campus","low_grade":"K","high_grade":"3","entity_type":"K-12 Schools (Private)"}},{"type":"Feature","geometry":{"type":"Point","coordinates":[-122.417563,37.724604]},"properties":{"name":"Cornerstone Academy–Cambridge Campus","low_grade":"4","high_grade":"8","entity_type":"K-12 Schools (Private)"}},{"type":"Feature","geometry":{"type":"Point","coordinates":[-122.435434,37.78003]},"properties":{"name":"Creative Arts Charter","low_grade":"K","high_grade":"8","entity_type":"Elementary Schools (Public)"}},{"type":"Feature","geometry":{"type":"Point","coordinates":[-122.413344,37.781659]},"properties":{"name":"De Marillac Academy","low_grade":"4","high_grade":"8","entity_type":"Elementary School (Private)"}},{"type":"Feature","geometry":{"type":"Point","coordinates":[-122.443314,37.721993]},"properties":{"name":"Denman (James) Middle","low_grade":"6","high_grade":"8","entity_type":"Intermediate/Middle Schools (Public)"}},{"type":"Feature","geometry":{"type":"Point","coordinates":[-122.412703,37.745905]},"properties":{"name":"Donum Dei Classical Academy","low_grade":"K","high_grade":"8","entity_type":"Elementary School (Private)"}},{"type":"Feature","geometry":{"type":"Point","coordinates":[-122.404072,37.760939]},"properties":{"name":"Downtown High","low_grade":"9","high_grade":"12","entity_type":"Continuation High Schools"}},{"type":"Feature","geometry":{"type":"Point","coordinates":[-122.39355,37.731779]},"properties":{"name":"Drew (Charles) College Preparatory Academy","low_grade":"K","high_grade":"5","entity_type":"Elementary Schools (Public)"}},{"type":"Feature","geometry":{"type":"Point","coordinates":[-122.44253,37.787687]},"properties":{"name":"Drew School","low_grade":"9","high_grade":"12","entity_type":"High Schools (Private)"}},{"type":"Feature","geometry":{"type":"Point","coordinates":[-122.415624,37.754645]},"properties":{"name":"Eclipse Academy","low_grade":"3","high_grade":"12","entity_type":"K-12 Schools (Private)"}},{"type":"Feature","geometry":{"type":"Point","coordinates":[-122.406709,37.791311]},"properties":{"name":"Ecole Notre Dame Des Victoires","low_grade":"K","high_grade":"8","entity_type":"Elementary School (Private)"}},{"type":"Feature","geometry":{"type":"Point","coordinates":[-122.486047,37.738609]},"properties":{"name":"Edgewood Community School","low_grade":"9","high_grade":"12","entity_type":"K-12 Schools (Private)"}},{"type":"Feature","geometry":{"type":"Point","coordinates":[-122.406737,37.719265]},"properties":{"name":"El Dorado Elementary","low_grade":"P","high_grade":"5","entity_type":"Elementary Schools (Public)"}},{"type":"Feature","geometry":{"type":"Point","coordinates":[-122.40612,37.787767]},"properties":{"name":"Enlighten Academy","low_grade":"6","high_grade":"12","entity_type":"K-12 Schools (Private)"}},{"type":"Feature","geometry":{"type":"Point","coordinates":[-122.437008,37.754966]},"properties":{"name":"Eureka Learning Center","low_grade":"K","high_grade":"K","entity_type":"Kindergartens (Private)"}},{"type":"Feature","geometry":{"type":"Point","coordinates":[-122.428581,37.763667]},"properties":{"name":"Everett Middle","low_grade":"6","high_grade":"8","entity_type":"Intermediate/Middle Schools (Public)"}},{"type":"Feature","geometry":{"type":"Point","coordinates":[-122.481857,37.739964]},"properties":{"name":"Feinstein (Dianne) Elementary","low_grade":"K","high_grade":"5","entity_type":"Elementary Schools (Public)"}},{"type":"Feature","geometry":{"type":"Point","coordinates":[-122.402165,37.777211]},"properties":{"name":"Five Keys Charter (SF Sheriff's)","low_grade":"9","high_grade":"12","entity_type":"High Schools (Public)"}},{"type":"Feature","geometry":{"type":"Point","coordinates":[-122.40214,37.77717]},"properties":{"name":"Five Keys Independence HS (SF Sheriff's)","low_grade":"9","high_grade":"12","entity_type":"High Schools (Public)"}},{"type":"Feature","geometry":{"type":"Point","coordinates":[-122.412037,37.74819]},"properties":{"name":"Flynn (Leonard R.) Elementary","low_grade":"K","high_grade":"5","entity_type":"Elementary Schools (Public)"}},{"type":"Feature","geometry":{"type":"Point","coordinates":[-122.411689,37.804816]},"properties":{"name":"Francisco Middle","low_grade":"6","high_grade":"8","entity_type":"Intermediate/Middle Schools (Public)"}},{"type":"Feature","geometry":{"type":"Point","coordinates":[-122.401438,37.801789]},"properties":{"name":"Fusion Academy San Francisco","low_grade":"6","high_grade":"12","entity_type":"K-12 Schools (Private)"}},{"type":"Feature","geometry":{"type":"Point","coordinates":[-122.424082,37.803401]},"properties":{"name":"Galileo High","low_grade":"9","high_grade":"12","entity_type":"High Schools (Public)"}},{"type":"Feature","geometry":{"type":"Point","coordinates":[-122.406734,37.8018]},"properties":{"name":"Garfield Elementary","low_grade":"K","high_grade":"5","entity_type":"Elementary Schools (Public)"}},{"type":"Feature","geometry":{"type":"Point","coordinates":[-122.437739,37.783129]},"properties":{"name":"Gateway High","low_grade":"9","high_grade":"12","entity_type":"High Schools (Public)"}},{"type":"Feature","geometry":{"type":"Point","coordinates":[-122.436008,37.779439]},"properties":{"name":"Gateway Middle","low_grade":"6","high_grade":"8","entity_type":"Intermediate/Middle Schools (Public)"}},{"type":"Feature","geometry":{"type":"Point","coordinates":[-122.436904,37.760246]},"properties":{"name":"German International School of Silicon Valley","low_grade":"K","high_grade":"12","entity_type":"Elementary School (Private)"}},{"type":"Feature","geometry":{"type":"Point","coordinates":[-122.497022,37.751425]},"properties":{"name":"Giannini (A.P.) Middle","low_grade":"6","high_grade":"8","entity_type":"Intermediate/Middle Schools (Public)"}},{"type":"Feature","geometry":{"type":"Point","coordinates":[-122.436088,37.733107]},"properties":{"name":"Glen Park Elementary","low_grade":"K","high_grade":"5","entity_type":"Elementary Schools (Public)"}},{"type":"Feature","geometry":{"type":"Point","coordinates":[-122.450526,37.763858]},"properties":{"name":"Grattan Elementary","low_grade":"K","high_grade":"5","entity_type":"Elementary Schools (Public)"}},{"type":"Feature","geometry":{"type":"Point","coordinates":[-122.434416,37.710438]},"properties":{"name":"Guadalupe Elementary","low_grade":"K","high_grade":"5","entity_type":"Elementary Schools (Public)"}},{"type":"Feature","geometry":{"type":"Point","coordinates":[-122.388897,37.71861]},"properties":{"name":"Harte (Bret) Elementary","low_grade":"K","high_grade":"5","entity_type":"Elementary Schools (Public)"}},{"type":"Feature","geometry":{"type":"Point","coordinates":[-122.388876,37.733772]},"properties":{"name":"Havard (Leola M.) Early Education","low_grade":"P","high_grade":"P","entity_type":"Preschool"}},{"type":"Feature","geometry":{"type":"Point","coordinates":[-122.419248,37.729026]},"properties":{"name":"Hillcrest Elementary","low_grade":"K","high_grade":"5","entity_type":"Elementary Schools (Public)"}},{"type":"Feature","geometry":{"type":"Point","coordinates":[-122.440119,37.793323]},"properties":{"name":"Hillwood Academic Day","low_grade":"K","high_grade":"8","entity_type":"Elementary School (Private)"}},{"type":"Feature","geometry":{"type":"Point","coordinates":[-122.498388,37.757809]},"properties":{"name":"Holy Name Elementary","low_grade":"K","high_grade":"8","entity_type":"Elementary School (Private)"}},{"type":"Feature","geometry":{"type":"Point","coordinates":[-122.47031,37.74535]},"properties":{"name":"Hoover (Herbert) Middle","low_grade":"6","high_grade":"8","entity_type":"Intermediate/Middle Schools (Public)"}},{"type":"Feature","geometry":{"type":"Point","coordinates":[-122.425596,37.740659]},"properties":{"name":"Huerta (Dolores) Elementary","low_grade":"K","high_grade":"5","entity_type":"Elementary Schools (Public)"}},{"type":"Feature","geometry":{"type":"Point","coordinates":[-122.423527,37.751858]},"properties":{"name":"ICA Cristo Rey Academy","low_grade":"9","high_grade":"12","entity_type":"High Schools (Private)"}},{"type":"Feature","geometry":{"type":"Point","coordinates":[-122.463826,37.763243]},"properties":{"name":"Independence High","low_grade":"9","high_grade":"12","entity_type":"Alternative Schools of Choice"}},{"type":"Feature","geometry":{"type":"Point","coordinates":[-122.476359,37.763555]},"properties":{"name":"Jefferson Elementary","low_grade":"K","high_grade":"5","entity_type":"Elementary Schools (Public)"}},{"type":"Feature","geometry":{"type":"Point","coordinates":[-122.436417,37.781426]},"properties":{"name":"Jewish Community High School of the Bay","low_grade":"9","high_grade":"12","entity_type":"High Schools (Private)"}},{"type":"Feature","geometry":{"type":"Point","coordinates":[-122.425502,37.719997]},"properties":{"name":"Jordan (June) School for Equity","low_grade":"9","high_grade":"12","entity_type":"Alternative Schools of Choice"}},{"type":"Feature","geometry":{"type":"Point","coordinates":[-122.492742,37.776063]},"properties":{"name":"Kahlon Family Services School","low_grade":"K","high_grade":"5","entity_type":"Elementary School (Private)"}},{"type":"Feature","geometry":{"type":"Point","coordinates":[-122.492867,37.783557]},"properties":{"name":"Katherine Delmar Burke School","low_grade":"K","high_grade":"8","entity_type":"Elementary School (Private)"}},{"type":"Feature","geometry":{"type":"Point","coordinates":[-122.422421,37.749812]},"properties":{"name":"Katherine Michiels School","low_grade":"K","high_grade":"5","entity_type":"Elementary School (Private)"}},{"type":"Feature","geometry":{"type":"Point","coordinates":[-122.502495,37.758154]},"properties":{"name":"Key (Francis Scott) Elementary","low_grade":"K","high_grade":"5","entity_type":"Elementary Schools (Public)"}},{"type":"Feature","geometry":{"type":"Point","coordinates":[-122.399351,37.752765]},"properties":{"name":"King (Thomas Starr) Elementary","low_grade":"K","high_grade":"5","entity_type":"Elementary Schools (Public)"}},{"type":"Feature","geometry":{"type":"Point","coordinates":[-122.404917,37.727948]},"properties":{"name":"King Jr. (Martin Luther) Academic Middle","low_grade":"6","high_grade":"8","entity_type":"Intermediate/Middle Schools (Public)"}},{"type":"Feature","geometry":{"type":"Point","coordinates":[-122.396374,37.71952]},"properties":{"name":"KIPP Bayview Academy","low_grade":"5","high_grade":"8","entity_type":"Intermediate/Middle Schools (Public)"}},{"type":"Feature","geometry":{"type":"Point","coordinates":[-122.43759,37.783165]},"properties":{"name":"KIPP San Francisco Bay Academy","low_grade":"5","high_grade":"8","entity_type":"Intermediate/Middle Schools (Public)"}},{"type":"Feature","geometry":{"type":"Point","coordinates":[-122.382356,37.732378]},"properties":{"name":"KIPP San Francisco College Preparatory","low_grade":"9","high_grade":"12","entity_type":"High Schools (Public)"}},{"type":"Feature","geometry":{"type":"Point","coordinates":[-122.484956,37.785544]},"properties":{"name":"Kittredge School","low_grade":"K","high_grade":"8","entity_type":"Elementary School (Private)"}},{"type":"Feature","geometry":{"type":"Point","coordinates":[-122.478318,37.713841]},"properties":{"name":"KZV Armenian School","low_grade":"K","high_grade":"8","entity_type":"Elementary School (Private)"}},{"type":"Feature","geometry":{"type":"Point","coordinates":[-122.416331,37.762291]},"properties":{"name":"La Scuola International School","low_grade":"K","high_grade":"8","entity_type":"Elementary School (Private)"}},{"type":"Feature","geometry":{"type":"Point","coordinates":[-122.496889,37.777608]},"properties":{"name":"Lafayette Elementary","low_grade":"K","high_grade":"5","entity_type":"Elementary Schools (Public)"}},{"type":"Feature","geometry":{"type":"Point","coordinates":[-122.486151,37.730603]},"properties":{"name":"Lakeshore Alternative Elementary","low_grade":"K","high_grade":"5","entity_type":"Elementary Schools (Public)"}},{"type":"Feature","geometry":{"type":"Point","coordinates":[-122.475199,37.730728]},"properties":{"name":"Lakeside Presbyterian Center for Children","low_grade":"K","high_grade":"K","entity_type":"Kindergartens (Private)"}},{"type":"Feature","geometry":{"type":"Point","coordinates":[-122.412659,37.757128]},"properties":{"name":"Las Americas Children Center","low_grade":"P","high_grade":"P","entity_type":"Preschool"}},{"type":"Feature","geometry":{"type":"Point","coordinates":[-122.408687,37.793981]},"properties":{"name":"Lau (Gordon J.) Elementary","low_grade":"K","high_grade":"5","entity_type":"Elementary Schools (Public)"}},{"type":"Feature","geometry":{"type":"Point","coordinates":[-122.373248,37.729029]},"properties":{"name":"Lavenia Rochelle Academy","low_grade":"K","high_grade":"12","entity_type":"K-12 Schools (Private)"}},{"type":"Feature","geometry":{"type":"Point","coordinates":[-122.489587,37.757952]},"properties":{"name":"Lawton Alternative","low_grade":"K","high_grade":"8","entity_type":"Elementary Schools (Public)"}},{"type":"Feature","geometry":{"type":"Point","coordinates":[-122.404146,37.794905]},"properties":{"name":"Lee (Edwin and Anita) Newcomer","low_grade":"K","high_grade":"5","entity_type":"Elementary Schools (Public)"}},{"type":"Feature","geometry":{"type":"Point","coordinates":[-122.431754,37.749543]},"properties":{"name":"Lick (James) Middle","low_grade":"6","high_grade":"8","entity_type":"Intermediate/Middle Schools (Public)"}},{"type":"Feature","geometry":{"type":"Point","coordinates":[-122.449131,37.722188]},"properties":{"name":"Lick-Wilmerding High School","low_grade":"9","high_grade":"12","entity_type":"High Schools (Private)"}},{"type":"Feature","geometry":{"type":"Point","coordinates":[-122.404797,37.77091]},"properties":{"name":"Life Learning Academy Charter","low_grade":"9","high_grade":"12","entity_type":"High Schools (Public)"}},{"type":"Feature","geometry":{"type":"Point","coordinates":[-122.443502,37.803192]},"properties":{"name":"Lilienthal (Claire) Elementary","low_grade":"K","high_grade":"8","entity_type":"Elementary Schools (Public)"}},{"type":"Feature","geometry":{"type":"Point","coordinates":[-122.481322,37.747259]},"properties":{"name":"Lincoln (Abraham) High","low_grade":"9","high_grade":"12","entity_type":"High Schools (Public)"}},{"type":"Feature","geometry":{"type":"Point","coordinates":[-122.399525,37.7636]},"properties":{"name":"Live Oak School","low_grade":"K","high_grade":"8","entity_type":"Elementary School (Private)"}},{"type":"Feature","geometry":{"type":"Point","coordinates":[-122.447692,37.71046]},"properties":{"name":"Longfellow Elementary","low_grade":"K","high_grade":"5","entity_type":"Elementary Schools (Public)"}},{"type":"Feature","geometry":{"type":"Point","coordinates":[-122.483559,37.731044]},"properties":{"name":"Lowell High","low_grade":"9","high_grade":"12","entity_type":"High Schools (Public)"}},{"type":"Feature","geometry":{"type":"Point","coordinates":[-122.446841,37.768064]},"properties":{"name":"Lycee Francais de San Francisco (Ashbury)","low_grade":"K","high_grade":"5","entity_type":"Elementary School (Private)"}},{"type":"Feature","geometry":{"type":"Point","coordinates":[-122.476479,37.751894]},"properties":{"name":"Lycee Francais de San Francisco (Ortega)","low_grade":"6","high_grade":"12","entity_type":"K-12 Schools (Private)"}},{"type":"Feature","geometry":{"type":"Point","coordinates":[-122.428001,37.755547]},"properties":{"name":"Mahler (Theresa S.) Children Center","low_grade":"P","high_grade":"P","entity_type":"Preschool"}},{"type":"Feature","geometry":{"type":"Point","coordinates":[-122.380617,37.733734]},"properties":{"name":"Malcolm X Academy","low_grade":"K","high_grade":"5","entity_type":"Elementary Schools (Public)"}},{"type":"Feature","geometry":{"type":"Point","coordinates":[-122.43636,37.801671]},"properties":{"name":"Marina Middle","low_grade":"6","high_grade":"8","entity_type":"Intermediate/Middle Schools (Public)"}},{"type":"Feature","geometry":{"type":"Point","coordinates":[-122.401881,37.735717]},"properties":{"name":"Marshall (Thurgood) High","low_grade":"8","high_grade":"12","entity_type":"High Schools (Public)"}},{"type":"Feature","geometry":{"type":"Point","coordinates":[-122.419099,37.766679]},"properties":{"name":"Marshall Elementary","low_grade":"K","high_grade":"5","entity_type":"Elementary Schools (Public)"}},{"type":"Feature","geometry":{"type":"Point","coordinates":[-122.464018,37.776283]},"properties":{"name":"McCoppin (Frank) Elementary","low_grade":"K","high_grade":"5","entity_type":"Elementary Schools (Public)"}},{"type":"Feature","geometry":{"type":"Point","coordinates":[-122.436594,37.767229]},"properties":{"name":"McKinley Elementary","low_grade":"K","high_grade":"5","entity_type":"Elementary Schools (Public)"}},{"type":"Feature","geometry":{"type":"Point","coordinates":[-122.421911,37.713557]},"properties":{"name":"McLaren (John) Children Centers","low_grade":"P","high_grade":"P","entity_type":"Preschool"}},{"type":"Feature","geometry":{"type":"Point","coordinates":[-122.405032,37.749583]},"properties":{"name":"Meadows-livingstone school","low_grade":"K","high_grade":"6","entity_type":"Elementary School (Private)"}},{"type":"Feature","geometry":{"type":"Point","coordinates":[-122.43634,37.759148]},"properties":{"name":"Milk (Harvey) Civil Rights Elementary","low_grade":"K","high_grade":"5","entity_type":"Elementary Schools (Public)"}},{"type":"Feature","geometry":{"type":"Point","coordinates":[-122.423746,37.781751]},"properties":{"name":"Millennium School of San Francisco","low_grade":"6","high_grade":"8","entity_type":"Elementary School (Private)"}},{"type":"Feature","geometry":{"type":"Point","coordinates":[-122.450214,37.739309]},"properties":{"name":"Miraloma Elementary","low_grade":"K","high_grade":"5","entity_type":"Elementary Schools (Public)"}},{"type":"Feature","geometry":{"type":"Point","coordinates":[-122.428026,37.764531]},"properties":{"name":"Mission Dolores Academy","low_grade":"K","high_grade":"8","entity_type":"Elementary School (Private)"}},{"type":"Feature","geometry":{"type":"Point","coordinates":[-122.431061,37.742282]},"properties":{"name":"Mission Education Center","low_grade":"K","high_grade":"5","entity_type":"Elementary Schools (Public)"}},{"type":"Feature","geometry":{"type":"Point","coordinates":[-122.427287,37.761403]},"properties":{"name":"Mission High","low_grade":"9","high_grade":"12","entity_type":"High Schools (Public)"}},{"type":"Feature","geometry":{"type":"Point","coordinates":[-122.418721,37.77682]},"properties":{"name":"Mission Montessori","low_grade":"K","high_grade":"6","entity_type":"Elementary School (Private)"}},{"type":"Feature","geometry":{"type":"Point","coordinates":[-122.408574,37.755441]},"properties":{"name":"Mission Preparatory","low_grade":"K","high_grade":"8","entity_type":"Elementary Schools (Public)"}},{"type":"Feature","geometry":{"type":"Point","coordinates":[-122.430121,37.725224]},"properties":{"name":"Monroe Elementary","low_grade":"K","high_grade":"5","entity_type":"Elementary Schools (Public)"}},{"type":"Feature","geometry":{"type":"Point","coordinates":[-122.412303,37.756242]},"properties":{"name":"Moscone (George R.) Elementary","low_grade":"K","high_grade":"5","entity_type":"Elementary Schools (Public)"}},{"type":"Feature","geometry":{"type":"Point","coordinates":[-122.429094,37.773688]},"properties":{"name":"Muir (John) Elementary","low_grade":"K","high_grade":"5","entity_type":"Elementary Schools (Public)"}},{"type":"Feature","geometry":{"type":"Point","coordinates":[-122.486902,37.77356]},"properties":{"name":"My City School","low_grade":"5","high_grade":"8","entity_type":"Elementary School (Private)"}},{"type":"Feature","geometry":{"type":"Point","coordinates":[-122.46732,37.781921]},"properties":{"name":"Nativity","low_grade":"9","high_grade":"12","entity_type":"High Schools (Private)"}},{"type":"Feature","geometry":{"type":"Point","coordinates":[-122.450324,37.77431]},"properties":{"name":"New Traditions Elementary","low_grade":"K","high_grade":"5","entity_type":"Elementary Schools (Public)"}},{"type":"Feature","geometry":{"type":"Point","coordinates":[-122.414721,37.755849]},"properties":{"name":"Nomad","low_grade":"5","high_grade":"8","entity_type":"Elementary School (Private)"}},{"type":"Feature","geometry":{"type":"Point","coordinates":[-122.503387,37.753466]},"properties":{"name":"Noriega Children Center","low_grade":"P","high_grade":"P","entity_type":"Preschool"}},{"type":"Feature","geometry":{"type":"Point","coordinates":[-122.414687,37.759631]},"properties":{"name":"O'Connell (John) High","low_grade":"9","high_grade":"12","entity_type":"High Schools (Public)"}},{"type":"Feature","geometry":{"type":"Point","coordinates":[-122.466259,37.716168]},"properties":{"name":"Ortega (Jose) Elementary","low_grade":"K","high_grade":"5","entity_type":"Elementary Schools (Public)"}},{"type":"Feature","geometry":{"type":"Point","coordinates":[-122.409473,37.709685]},"properties":{"name":"Our Lady of the Visitacion Elementary","low_grade":"K","high_grade":"8","entity_type":"Elementary School (Private)"}},{"type":"Feature","geometry":{"type":"Point","coordinates":[-122.411105,37.797323]},"properties":{"name":"Parker (Jean) Elementary","low_grade":"K","high_grade":"5","entity_type":"Elementary Schools (Public)"}},{"type":"Feature","geometry":{"type":"Point","coordinates":[-122.429454,37.783681]},"properties":{"name":"Parks (Rosa) Elementary","low_grade":"K","high_grade":"5","entity_type":"Elementary Schools (Public)"}},{"type":"Feature","geometry":{"type":"Point","coordinates":[-122.464567,37.783947]},"properties":{"name":"Peabody (George) Elementary","low_grade":"K","high_grade":"5","entity_type":"Elementary Schools (Public)"}},{"type":"Feature","geometry":{"type":"Point","coordinates":[-122.461075,37.797684]},"properties":{"name":"Presidio Early Ed.","low_grade":"P","high_grade":"P","entity_type":"Preschool"}},{"type":"Feature","geometry":{"type":"Point","coordinates":[-122.456047,37.788675]},"properties":{"name":"Presidio Hill School","low_grade":"K","high_grade":"8","entity_type":"Elementary School (Private)"}},{"type":"Feature","geometry":{"type":"Point","coordinates":[-122.413682,37.773697]},"properties":{"name":"Presidio Knolls School","low_grade":"K","high_grade":"8","entity_type":"Kindergartens (Private)"}},{"type":"Feature","geometry":{"type":"Point","coordinates":[-122.490102,37.780831]},"properties":{"name":"Presidio Middle","low_grade":"6","high_grade":"8","entity_type":"Intermediate/Middle Schools (Public)"}},{"type":"Feature","geometry":{"type":"Point","coordinates":[-122.407924,37.781181]},"properties":{"name":"Proof School","low_grade":"6","high_grade":"12","entity_type":"K-12 Schools (Private)"}},{"type":"Feature","geometry":{"type":"Point","coordinates":[-122.388277,37.761089]},"properties":{"name":"Red Bridge","low_grade":"K","high_grade":"7","entity_type":"Elementary School (Private)"}},{"type":"Feature","geometry":{"type":"Point","coordinates":[-122.419215,37.789726]},"properties":{"name":"Redding Elementary","low_grade":"K","high_grade":"5","entity_type":"Elementary Schools (Public)"}},{"type":"Feature","geometry":{"type":"Point","coordinates":[-122.413174,37.737142]},"properties":{"name":"Revere (Paul) Elementary","low_grade":"K","high_grade":"8","entity_type":"Elementary Schools (Public)"}},{"type":"Feature","geometry":{"type":"Point","coordinates":[-122.382079,37.738923]},"properties":{"name":"Rise University Preparatory","low_grade":"9","high_grade":"12","entity_type":"High Schools (Private)"}},{"type":"Feature","geometry":{"type":"Point","coordinates":[-122.443888,37.754418]},"properties":{"name":"Rooftop Elementary","low_grade":"K","high_grade":"8","entity_type":"Elementary Schools (Public)"}},{"type":"Feature","geometry":{"type":"Point","coordinates":[-122.458952,37.782249]},"properties":{"name":"Roosevelt Middle","low_grade":"6","high_grade":"8","entity_type":"Intermediate/Middle Schools (Public)"}},{"type":"Feature","geometry":{"type":"Point","coordinates":[-122.400623,37.76172]},"properties":{"name":"S.F. International High","low_grade":"8","high_grade":"12","entity_type":"Alternative Schools of Choice"}},{"type":"Feature","geometry":{"type":"Point","coordinates":[-122.423457,37.783524]},"properties":{"name":"Sacred Heart Cathedral Preparatory","low_grade":"9","high_grade":"12","entity_type":"High Schools (Private)"}},{"type":"Feature","geometry":{"type":"Point","coordinates":[-122.424826,37.795337]},"properties":{"name":"Saint Brigid Academy","low_grade":"K","high_grade":"8","entity_type":"Elementary School (Private)"}},{"type":"Feature","geometry":{"type":"Point","coordinates":[-122.483524,37.780236]},"properties":{"name":"Saint Monica School","low_grade":"K","high_grade":"8","entity_type":"Elementary School (Private)"}},{"type":"Feature","geometry":{"type":"Point","coordinates":[-122.450839,37.722215]},"properties":{"name":"San Francisco Adventist School","low_grade":"K","high_grade":"8","entity_type":"Elementary School (Private)"}},{"type":"Feature","geometry":{"type":"Point","coordinates":[-122.447754,37.710037]},"properties":{"name":"San Francisco Christian School","low_grade":"K","high_grade":"12","entity_type":"K-12 Schools (Private)"}},{"type":"Feature","geometry":{"type":"Point","coordinates":[-122.412406,37.783496]},"properties":{"name":"San Francisco City Academy","low_grade":"K","high_grade":"5","entity_type":"K-12 Schools (Private)"}},{"type":"Feature","geometry":{"type":"Point","coordinates":[-122.432624,37.725815]},"properties":{"name":"San Francisco Community Alternative","low_grade":"K","high_grade":"8","entity_type":"Elementary Schools (Public)"}},{"type":"Feature","geometry":{"type":"Point","coordinates":[-122.446137,37.777894]},"properties":{"name":"San Francisco Day School","low_grade":"K","high_grade":"8","entity_type":"Elementary School (Private)"}},{"type":"Feature","geometry":{"type":"Point","coordinates":[-122.422908,37.768979]},"properties":{"name":"San Francisco Friends School","low_grade":"K","high_grade":"8","entity_type":"Elementary School (Private)"}},{"type":"Feature","geometry":{"type":"Point","coordinates":[-122.452939,37.770342]},"properties":{"name":"San Francisco High School of the Arts","low_grade":"5","high_grade":"12","entity_type":"K-12 Schools (Private)"}},{"type":"Feature","geometry":{"type":"Point","coordinates":[-122.454287,37.71375]},"properties":{"name":"San Francisco Islamic School","low_grade":"K","high_grade":"8","entity_type":"Elementary School (Private)"}},{"type":"Feature","geometry":{"type":"Point","coordinates":[-122.494287,37.77564]},"properties":{"name":"San Francisco Pacific Academy","low_grade":"K","high_grade":"8","entity_type":"Elementary School (Private)"}},{"type":"Feature","geometry":{"type":"Point","coordinates":[-122.433547,37.792616]},"properties":{"name":"San Francisco Public Montessori","low_grade":"K","high_grade":"5","entity_type":"Elementary Schools (Public)"}},{"type":"Feature","geometry":{"type":"Point","coordinates":[-122.411698,37.73278]},"properties":{"name":"San Francisco School, The","low_grade":"K","high_grade":"8","entity_type":"Elementary School (Private)"}},{"type":"Feature","geometry":{"type":"Point","coordinates":[-122.430191,37.77487]},"properties":{"name":"San Francisco Schoolhouse","low_grade":"K","high_grade":"8","entity_type":"Elementary School (Private)"}},{"type":"Feature","geometry":{"type":"Point","coordinates":[-122.445353,37.790956]},"properties":{"name":"San Francisco University High School","low_grade":"9","high_grade":"12","entity_type":"High Schools (Private)"}},{"type":"Feature","geometry":{"type":"Point","coordinates":[-122.44191,37.79092]},"properties":{"name":"San Francisco Waldorf School","low_grade":"K","high_grade":"12","entity_type":"K-12 Schools (Private)"}},{"type":"Feature","geometry":{"type":"Point","coordinates":[-122.444754,37.721211]},"properties":{"name":"San Miguel Children Center","low_grade":"P","high_grade":"P","entity_type":"Preschool"}},{"type":"Feature","geometry":{"type":"Point","coordinates":[-122.430768,37.763967]},"properties":{"name":"Sanchez Elementary","low_grade":"K","high_grade":"5","entity_type":"Elementary Schools (Public)"}},{"type":"Feature","geometry":{"type":"Point","coordinates":[-122.434907,37.716192]},"properties":{"name":"School of the Epiphany","low_grade":"K","high_grade":"8","entity_type":"Elementary School (Private)"}},{"type":"Feature","geometry":{"type":"Point","coordinates":[-122.421137,37.736733]},"properties":{"name":"Serra (Junipero) Elementary","low_grade":"K","high_grade":"5","entity_type":"Elementary Schools (Public)"}},{"type":"Feature","geometry":{"type":"Point","coordinates":[-122.459134,37.714331]},"properties":{"name":"Sheridan Elementary","low_grade":"K","high_grade":"5","entity_type":"Elementary Schools (Public)"}},{"type":"Feature","geometry":{"type":"Point","coordinates":[-122.426203,37.798273]},"properties":{"name":"Sherman Elementary","low_grade":"K","high_grade":"5","entity_type":"Elementary Schools (Public)"}},{"type":"Feature","geometry":{"type":"Point","coordinates":[-122.470965,37.731881]},"properties":{"name":"Sloat (Commodore) Elementary","low_grade":"K","high_grade":"5","entity_type":"Elementary Schools (Public)"}},{"type":"Feature","geometry":{"type":"Point","coordinates":[-122.418992,37.794403]},"properties":{"name":"Spring Valley Elementary","low_grade":"K","high_grade":"5","entity_type":"Elementary Schools (Public)"}},{"type":"Feature","geometry":{"type":"Point","coordinates":[-122.423676,37.751345]},"properties":{"name":"St James School","low_grade":"K","high_grade":"8","entity_type":"Elementary School (Private)"}},{"type":"Feature","geometry":{"type":"Point","coordinates":[-122.471509,37.763304]},"properties":{"name":"St. Anne School","low_grade":"K","high_grade":"8","entity_type":"Elementary School (Private)"}},{"type":"Feature","geometry":{"type":"Point","coordinates":[-122.413856,37.747329]},"properties":{"name":"St. Anthony–Immaculate Conception","low_grade":"K","high_grade":"8","entity_type":"Elementary School (Private)"}},{"type":"Feature","geometry":{"type":"Point","coordinates":[-122.456493,37.742801]},"properties":{"name":"St. Brendan Elementary","low_grade":"K","high_grade":"8","entity_type":"Elementary School (Private)"}},{"type":"Feature","geometry":{"type":"Point","coordinates":[-122.473942,37.739403]},"properties":{"name":"St. Cecilia Elementary","low_grade":"K","high_grade":"8","entity_type":"Elementary School (Private)"}},{"type":"Feature","geometry":{"type":"Point","coordinates":[-122.447365,37.730349]},"properties":{"name":"St. Finn Barr Catholic School","low_grade":"K","high_grade":"8","entity_type":"Elementary School (Private)"}},{"type":"Feature","geometry":{"type":"Point","coordinates":[-122.498992,37.739373]},"properties":{"name":"St. Gabriel Elementary School","low_grade":"K","high_grade":"9","entity_type":"Elementary School (Private)"}},{"type":"Feature","geometry":{"type":"Point","coordinates":[-122.495771,37.7484]},"properties":{"name":"St. Ignatius College Preparatory","low_grade":"6","high_grade":"12","entity_type":"High Schools (Private)"}},{"type":"Feature","geometry":{"type":"Point","coordinates":[-122.437712,37.735227]},"properties":{"name":"St. John the Evangelist","low_grade":"K","high_grade":"8","entity_type":"Elementary School (Private)"}},{"type":"Feature","geometry":{"type":"Point","coordinates":[-122.426868,37.744051]},"properties":{"name":"St. Paul's","low_grade":"K","high_grade":"8","entity_type":"Elementary School (Private)"}},{"type":"Feature","geometry":{"type":"Point","coordinates":[-122.409996,37.751672]},"properties":{"name":"St. Peter's School","low_grade":"K","high_grade":"8","entity_type":"Elementary School (Private)"}},{"type":"Feature","geometry":{"type":"Point","coordinates":[-122.436301,37.751866]},"properties":{"name":"St. Philip School","low_grade":"K","high_grade":"8","entity_type":"Elementary School (Private)"}},{"type":"Feature","geometry":{"type":"Point","coordinates":[-122.47528,37.730674]},"properties":{"name":"St. Stephen School","low_grade":"K","high_grade":"8","entity_type":"Elementary School (Private)"}},{"type":"Feature","geometry":{"type":"Point","coordinates":[-122.473044,37.712255]},"properties":{"name":"St. Thomas More","low_grade":"K","high_grade":"8","entity_type":"Elementary School (Private)"}},{"type":"Feature","geometry":{"type":"Point","coordinates":[-122.437744,37.796274]},"properties":{"name":"St. Vincent de Paul School","low_grade":"K","high_grade":"8","entity_type":"Elementary School (Private)"}},{"type":"Feature","geometry":{"type":"Point","coordinates":[-122.467362,37.781586]},"properties":{"name":"Stella Maris Academy","low_grade":"K","high_grade":"8","entity_type":"Elementary School (Private)"}},{"type":"Feature","geometry":{"type":"Point","coordinates":[-122.404864,37.795892]},"properties":{"name":"Sterne School","low_grade":"4","high_grade":"12","entity_type":"K-12 Schools (Private)"}},{"type":"Feature","geometry":{"type":"Point","coordinates":[-122.4923,37.748857]},"properties":{"name":"Stevenson (Robert Louis) Elementary","low_grade":"K","high_grade":"5","entity_type":"Elementary Schools (Public)"}},{"type":"Feature","geometry":{"type":"Point","coordinates":[-122.408832,37.795046]},"properties":{"name":"Stockton (Commodore) Children Center","low_grade":"P","high_grade":"P","entity_type":"Preschool"}},{"type":"Feature","geometry":{"type":"Point","coordinates":[-122.472818,37.776134]},"properties":{"name":"Stratford School","low_grade":"K","high_grade":"5","entity_type":"Elementary School (Private)"}},{"type":"Feature","geometry":{"type":"Point","coordinates":[-122.461497,37.723337]},"properties":{"name":"Stratford School","low_grade":"K","high_grade":"5","entity_type":"Kindergartens (Private)"}},{"type":"Feature","geometry":{"type":"Point","coordinates":[-122.434847,37.727161]},"properties":{"name":"Stratford School San Francisco","low_grade":"6","high_grade":"8","entity_type":"Elementary School (Private)"}},{"type":"Feature","geometry":{"type":"Point","coordinates":[-122.41036,37.80135]},"properties":{"name":"Sts. Peter and Paul Elementary","low_grade":"K","high_grade":"8","entity_type":"Elementary School (Private)"}},{"type":"Feature","geometry":{"type":"Point","coordinates":[-122.448794,37.730307]},"properties":{"name":"Sunnyside Elementary","low_grade":"K","high_grade":"5","entity_type":"Elementary Schools (Public)"}},{"type":"Feature","geometry":{"type":"Point","coordinates":[-122.499799,37.750743]},"properties":{"name":"Sunset Elementary","low_grade":"K","high_grade":"5","entity_type":"Elementary Schools (Public)"}},{"type":"Feature","geometry":{"type":"Point","coordinates":[-122.471025,37.783932]},"properties":{"name":"Sutro Elementary","low_grade":"K","high_grade":"5","entity_type":"Elementary Schools (Public)"}},{"type":"Feature","geometry":{"type":"Point","coordinates":[-122.420143,37.750938]},"properties":{"name":"Synergy School","low_grade":"K","high_grade":"8","entity_type":"Elementary School (Private)"}},{"type":"Feature","geometry":{"type":"Point","coordinates":[-122.407332,37.728]},"properties":{"name":"Taylor (Edward R.) Elementary","low_grade":"K","high_grade":"5","entity_type":"Elementary Schools (Public)"}},{"type":"Feature","geometry":{"type":"Point","coordinates":[-122.400884,37.789971]},"properties":{"name":"TCS","low_grade":"K","high_grade":"12","entity_type":"K-12 Schools (Private)"}},{"type":"Feature","geometry":{"type":"Point","coordinates":[-122.419799,37.782061]},"properties":{"name":"Tenderloin Community","low_grade":"K","high_grade":"5","entity_type":"Elementary Schools (Public)"}},{"type":"Feature","geometry":{"type":"Point","coordinates":[-122.499658,37.775338]},"properties":{"name":"Terra San Francisco School","low_grade":"K","high_grade":"3","entity_type":"Kindergartens (Private)"}},{"type":"Feature","geometry":{"type":"Point","coordinates":[-122.455646,37.80078]},"properties":{"name":"The Bay School of San Francisco","low_grade":"9","high_grade":"12","entity_type":"High Schools (Private)"}},{"type":"Feature","geometry":{"type":"Point","coordinates":[-122.475599,37.713285]},"properties":{"name":"The Brandeis School of San Francisco","low_grade":"K","high_grade":"8","entity_type":"Elementary School (Private)"}},{"type":"Feature","geometry":{"type":"Point","coordinates":[-122.391205,37.772413]},"properties":{"name":"The Dahlia School of San Francisco Elementary","low_grade":"K","high_grade":"6","entity_type":"Elementary School (Private)"}},{"type":"Feature","geometry":{"type":"Point","coordinates":[-122.432524,37.794904]},"properties":{"name":"The Hamlin School","low_grade":"K","high_grade":"8","entity_type":"Elementary School (Private)"}},{"type":"Feature","geometry":{"type":"Point","coordinates":[-122.421751,37.775341]},"properties":{"name":"The International School of San Francisco","low_grade":"K","high_grade":"12","entity_type":"K-12 Schools (Private)"}},{"type":"Feature","geometry":{"type":"Point","coordinates":[-122.387036,37.717953]},"properties":{"name":"The Neos Bayview Academy","low_grade":"K","high_grade":"5","entity_type":"Elementary School (Private)"}},{"type":"Feature","geometry":{"type":"Point","coordinates":[-122.426202,37.754937]},"properties":{"name":"Thomas Edison Charter Academy","low_grade":"K","high_grade":"8","entity_type":"Elementary Schools (Public)"}},{"type":"Feature","geometry":{"type":"Point","coordinates":[-122.440117,37.791895]},"properties":{"name":"Town School for Boys","low_grade":"K","high_grade":"8","entity_type":"Elementary School (Private)"}},{"type":"Feature","geometry":{"type":"Point","coordinates":[-122.434534,37.799407]},"properties":{"name":"Tule Elk Park Children Center","low_grade":"P","high_grade":"P","entity_type":"Preschool"}},{"type":"Feature","geometry":{"type":"Point","coordinates":[-122.499954,37.737302]},"properties":{"name":"Ulloa Elementary","low_grade":"K","high_grade":"5","entity_type":"Elementary Schools (Public)"}},{"type":"Feature","geometry":{"type":"Point","coordinates":[-122.446249,37.770967]},"properties":{"name":"Urban School of San Francisco","low_grade":"9","high_grade":"12","entity_type":"High Schools (Private)"}},{"type":"Feature","geometry":{"type":"Point","coordinates":[-122.410365,37.71268]},"properties":{"name":"Visitacion Valley Elementary","low_grade":"K","high_grade":"5","entity_type":"Elementary Schools (Public)"}},{"type":"Feature","geometry":{"type":"Point","coordinates":[-122.412417,37.715632]},"properties":{"name":"Visitacion Valley Middle","low_grade":"6","high_grade":"8","entity_type":"Intermediate/Middle Schools (Public)"}},{"type":"Feature","geometry":{"type":"Point","coordinates":[-122.445755,37.780171]},"properties":{"name":"Wallenberg (Raoul) Traditional High","low_grade":"9","high_grade":"12","entity_type":"High Schools (Public)"}},{"type":"Feature","geometry":{"type":"Point","coordinates":[-122.492032,37.777781]},"properties":{"name":"Washington (George) High","low_grade":"9","high_grade":"12","entity_type":"High Schools (Public)"}},{"type":"Feature","geometry":{"type":"Point","coordinates":[-122.396236,37.760489]},"properties":{"name":"Webster (Daniel) Elementary","low_grade":"K","high_grade":"5","entity_type":"Elementary Schools (Public)"}},{"type":"Feature","geometry":{"type":"Point","coordinates":[-122.430134,37.783512]},"properties":{"name":"Weill (Raphael) Children Center","low_grade":"P","high_grade":"P","entity_type":"Preschool"}},{"type":"Feature","geometry":{"type":"Point","coordinates":[-122.434461,37.775392]},"properties":{"name":"Wells (Ida B.) High","low_grade":"9","high_grade":"12","entity_type":"Continuation High Schools"}},{"type":"Feature","geometry":{"type":"Point","coordinates":[-122.447611,37.72816]},"properties":{"name":"Wen Jian Ying","low_grade":"K","high_grade":"12","entity_type":"Elementary School (Private)"}},{"type":"Feature","geometry":{"type":"Point","coordinates":[-122.464683,37.743572]},"properties":{"name":"West Portal Elementary","low_grade":"K","high_grade":"5","entity_type":"Elementary Schools (Public)"}},{"type":"Feature","geometry":{"type":"Point","coordinates":[-122.473426,37.735255]},"properties":{"name":"West Portal Lutheran School","low_grade":"K","high_grade":"8","entity_type":"Elementary School (Private)"}},{"type":"Feature","geometry":{"type":"Point","coordinates":[-122.416304,37.801906]},"properties":{"name":"Yick Wo Elementary","low_grade":"K","high_grade":"5","entity_type":"Elementary Schools (Public)"}},{"type":"Feature","geometry":{"type":"Point","coordinates":[-122.469314,37.759405]},"properties":{"name":"Yu (Alice Fong) Elementary","low_grade":"K","high_grade":"8","entity_type":"Elementary Schools (Public)"}},{"type":"Feature","geometry":{"type":"Point","coordinates":[-122.467633,37.779241]},"properties":{"name":"Zion Lutheran School","low_grade":"K","high_grade":"8","entity_type":"Elementary School (Private)"}},{"type":"Feature","geometry":{"type":"Point","coordinates":[null,null]},"properties":{"name":"Andrews family home school","low_grade":"K","high_grade":"12","entity_type":"K-12 Schools (Private)"}},{"type":"Feature","geometry":{"type":"Point","coordinates":[null,null]},"properties":{"name":"Sovereign Private School","low_grade":"K","high_grade":"12","entity_type":"K-12 Schools (Private)"}}]}